[{
  "_id": {
    "$oid": "660323d97dd9c114a48bf217"
  },
  "HomeID": 1,
  "Address": {
    "Street": "123 Oak St",
    "City": "Troy",
    "State": "MI",
    "ZipCode": "48083"
  },
  "UnitNumber": "Unit 1A"
},
{
  "_id": {
    "$oid": "660323d97dd9c114a48bf218"
  },
  "HomeID": 2,
  "Address": {
    "Street": "789 Maple Ave",
    "City": "Rochester",
    "State": "NY",
    "ZipCode": "14610"
  },
  "UnitNumber": "Apt 2B"
},
{
  "_id": {
    "$oid": "660323d97dd9c114a48bf219"
  },
  "HomeID": 3,
  "Address": {
    "Street": "456 Pine Rd",
    "City": "Troy",
    "State": "MI",
    "ZipCode": "48084"
  },
  "UnitNumber": ""
},
{
  "_id": {
    "$oid": "660323d97dd9c114a48bf21a"
  },
  "HomeID": 4,
  "Address": {
    "Street": "101 Cedar Ln",
    "City": "Auburn Hills",
    "State": "MI",
    "ZipCode": "48326"
  },
  "UnitNumber": ""
},
{
  "_id": {
    "$oid": "660323d97dd9c114a48bf21b"
  },
  "HomeID": 5,
  "Address": {
    "Street": "321 Birch Blvd",
    "City": "Rochester",
    "State": "NY",
    "ZipCode": "14611"
  },
  "UnitNumber": "Apt 3C"
},
{
  "_id": {
    "$oid": "660323d97dd9c114a48bf21c"
  },
  "HomeID": 6,
  "Address": {
    "Street": "222 Walnut Dr",
    "City": "Troy",
    "State": "MI",
    "ZipCode": "48085"
  },
  "UnitNumber": ""
},
{
  "_id": {
    "$oid": "660323d97dd9c114a48bf21d"
  },
  "HomeID": 7,
  "Address": {
    "Street": "789 Oak St",
    "City": "Auburn Hills",
    "State": "MI",
    "ZipCode": "48327"
  },
  "UnitNumber": ""
},
{
  "_id": {
    "$oid": "660323d97dd9c114a48bf21e"
  },
  "HomeID": 8,
  "Address": {
    "Street": "456 Elm St",
    "City": "Detroit",
    "State": "MI",
    "ZipCode": "48201"
  },
  "UnitNumber": "Apt 4D"
},
{
  "_id": {
    "$oid": "660323d97dd9c114a48bf21f"
  },
  "HomeID": 9,
  "Address": {
    "Street": "123 Pine Rd",
    "City": "Troy",
    "State": "MI",
    "ZipCode": "48086"
  },
  "UnitNumber": "Apt 5E"
},
{
  "_id": {
    "$oid": "660323d97dd9c114a48bf220"
  },
  "HomeID": 10,
  "Address": {
    "Street": "789 Cedar Ln",
    "City": "Detroit",
    "State": "MI",
    "ZipCode": "48202"
  },
  "UnitNumber": "Apt 6F"
}]